KUIPER-00027            
1 63740U 25088S   25326.88752932  .00002438  00000+0  34985-3 0  9993
2 63740  51.8999 207.7690 0005042 156.1878 203.9318 14.79795904 31804
KUIPER-00028            
1 63741U 25088T   25327.04151563  .00002395  00000+0  34608-3 0  9990
2 63741  51.8991 205.0829 0004266 175.9430 184.1567 14.79559218 32265
KUIPER-00029            
1 63742U 25088U   25326.87139574  .00002491  00000+0  35352-3 0  9993
2 63742  51.9002 203.6724 0010080 127.2387 232.9497 14.80201358 31792
KUIPER-00030            
1 63743U 25088V   25327.14970792  .00018683  00000+0  24693-2 0  9995
2 63743  51.9001 221.6583 0016093  77.2607 283.0153 14.79914303 31856
KUIPER-00031            
1 63744U 25088W   25326.96155532 -.00001222  00000+0 -13111-3 0  9999
2 63744  51.9000 208.5643 0005391 113.5768 246.5761 14.79940650 31738
KUIPER-00032            
1 63745U 25088X   25326.82201188  .00013085  00000+0  41724-3 0  9993
2 63745  51.8690 179.0535 0005633 113.4661 246.6916 15.32835808 33132
KUIPER-00033            
1 63746U 25088Y   25327.19928795  .00006197  00000+0  84045-3 0  9994
2 63746  51.9009 237.4953 0004074 166.3053 193.8021 14.79966594 31833
KUIPER-00034            
1 63747U 25088Z   25327.09389589  .00003067  00000+0  46289-3 0  9997
2 63747  51.9012 200.3634 0003254 106.6391 253.4927 14.76852715 32020
